[{"OBJECT_NAME":"PROTOMETHEE","OBJECT_ID":"2023-174BT","EPOCH":"2026-03-09T23:28:08.029344","MEAN_MOTION":15.30202663,"ECCENTRICITY":0.00088339,"INCLINATION":97.3826,"RA_OF_ASC_NODE":147.9552,"ARG_OF_PERICENTER":148.5993,"MEAN_ANOMALY":211.5776,"EPHEMERIS_TYPE":0,"CLASSIFICATION_TYPE":"U","NORAD_CAT_ID":58321,"ELEMENT_SET_NO":999,"REV_AT_EPOCH":12979,"BSTAR":0.00015715731,"MEAN_MOTION_DOT":4.52e-5,"MEAN_MOTION_DDOT":0},{"OBJECT_NAME":"STARLINK-33914","OBJECT_ID":"2025-089Y","EPOCH":"2026-03-09T22:59:48.972480","MEAN_MOTION":15.27593515,"ECCENTRICITY":0.00011101,"INCLINATION":43.0045,"RA_OF_ASC_NODE":39.7827,"ARG_OF_PERICENTER":256.7211,"MEAN_ANOMALY":103.3517,"EPHEMERIS_TYPE":0,"CLASSIFICATION_TYPE":"U","NORAD_CAT_ID":63774,"ELEMENT_SET_NO":999,"REV_AT_EPOCH":4904,"BSTAR":0.0015053517,"MEAN_MOTION_DOT":0.00041412,"MEAN_MOTION_DDOT":0}]
